CUTE-1 (CO-55)          
1 27844U 03031E   26116.96631435  .00000306  00000+0  15134-3 0  9990
2 27844  98.6757 126.1672 0009067 341.6381  18.4470 14.24302740184387
CUBESAT XI-IV (CO-57)   
1 27848U 03031J   26116.99944912  .00000251  00000+0  12918-3 0  9990
2 27848  98.6788 125.9538 0009380   0.4265 359.6920 14.23592362184090
CUBESAT XI-V            
1 28895U 05043F   26117.16864798  .00001591  00000+0  25858-3 0  9996
2 28895  98.2925 271.7406 0014194  12.8528 347.3037 14.72493837 94245
CUTE-1.7+APD II (CO-65) 
1 32785U 08021C   26117.19633130  .00006116  00000+0  39116-3 0  9995
2 32785  97.8254  97.5835 0008430 189.8816 170.2248 15.08959991977503
CANX-2                  
1 32790U 08021H   26117.17441706  .00004248  00000+0  30172-3 0  9992
2 32790  97.8602  95.9863 0009493 208.8165 151.2537 15.05240562977131
SEEDS II (CO-66)        
1 32791U 08021J   26116.92247450  .00020476  00000+0  68577-3 0  9996
2 32791  97.7528 112.4472 0004990 113.7428 246.4336 15.30966474979447
SWISSCUBE               
1 35932U 09051B   26117.19591594  .00001176  00000+0  24233-3 0  9998
2 35932  98.4066  24.1928 0007326  22.0069 338.1445 14.62379488881704
BEESAT-1                
1 35933U 09051C   26117.17909341  .00000977  00000+0  20627-3 0  9991
2 35933  98.3995  23.9170 0006082  37.0344 323.1275 14.61634123881738
ITUPSAT1                
1 35935U 09051E   26117.26248713  .00000904  00000+0  19690-3 0  9990
2 35935  98.4081  23.2470 0008428  43.7341 316.4525 14.60361119881307
TISAT 1                 
1 36799U 10035E   26117.25848128  .00026261  00000+0  91185-3 0  9991
2 36799  98.0679  59.3813 0004570  79.0427 281.1325 15.29745076859919
AEROCUBE 4.5A           
1 38767U 12048K   26116.64435774  .00171592  00000+0  12004-2 0  9995
2 38767  64.6325 211.7963 0025084 214.3094 145.6438 15.73067408364500
STRAND-1                
1 39090U 13009E   26116.46574296  .00000307  00000+0  11755-3 0  9994
2 39090  98.3914 297.9758 0009220  32.9650 327.2110 14.37131572689634
BRITE-AUSTRIA           
1 39091U 13009F   26117.29230626  .00000200  00000+0  82511-4 0  9994
2 39091  98.3985 297.9904 0010874  37.9690 322.2261 14.36521023689749
NEE-01 PEGASO           
1 39151U 13018B   26116.94620140  .00003470  00000+0  33589-3 0  9998
2 39151  98.1146 259.4342 0011876 338.9376  21.1351 14.93403587703053
POPACS 2                
1 39269U 13055E   26117.22748450  .00019671  00000+0  33649-3 0  9993
2 39269  80.9937 202.4715 0421897 357.6452   2.2760 14.89957814655628
POPACS 3                
1 39270U 13055F   26117.17765923  .00011474  00000+0  27786-3 0  9991
2 39270  80.9998 284.4489 0555523 225.1484 130.3308 14.54860165631138
